Orbital Elements at Epoch 2458059.5 (2017-Nov-02.0) TDB
Reference: JPL 15 (heliocentric ecliptic J2000)
 Element   Value  Uncertainty (1-sigma)   Units 
e	   1.199512420116502  0.00018113   
a	   -1.27983608372505  0.0008246	   au
q	   .2553431944164106  6.7314e-05   au
i	   122.6872051262465  0.0063195	   deg
node	   24.59921097817111  0.00028668   deg
peri	   241.7029828623324  0.012299	   deg
M	   36.42531274372935  0.034202	   deg
tp	   2458005.990518697340
(2017-Sep-09.49051870)	0.0014726	JED
period			n/a
n/a			n/a
n/a			d
yr
n	.6807263284370244	0.00065789	deg/d
Q	n/a			n/a		au
 	Orbit Determination Parameters
   # obs. used (total)        121  
   data-arc span   	        34 days  
   first obs. used   		  2017-10-14  
   last obs. used   		    2017-11-17  
   planetary ephem.   		      DE431  
   SB-pert. ephem.   		        SB431-N16  
   fit RMS   				  .38413  
   data source   			    ORB  
   producer   				      Davide Farnocchia  
   solution date   			        2017-Dec-11 10:08:04  

Additional Information
 Earth MOID = .0958594 au 
 Jupiter MOID = 1.45505 au 
[ hide covariance matrix ]
Orbit Covariance (66)
      e		 q	tp	node	peri	i
e     3.280884553475304E-8	1.21912468929939E-8	2.664024406876134E-7	-5.189060293792596E-8	2.227693306244164E-6 1.144454622346664E-6
q     1.21912468929939E-8	4.531200156459704E-9	9.891692479282223E-8	-1.928718768663412E-8	8.27864377331905E-7  4.252549738508278E-7
tp    2.664024406876134E-7	9.891692479282223E-8	2.168536853038564E-6	-4.208530841352833E-7	1.808283451109792E-5 9.292602259502882E-6
node  -5.189060293792596E-8	-1.928718768663412E-8	-4.208530841352833E-7	8.218549627815087E-8	-3.523689281349856E-6 -1.809652625670336E-6
peri  2.227693306244164E-6	8.27864377331905E-7	1.808283451109792E-5	-3.523689281349856E-6	.0001512656277515969  7.770714168110806E-5
i     1.144454622346664E-6	4.252549738508278E-7	9.292602259502882E-6	-1.809652625670336E-6	7.770714168110806E-5  3.993643141790152E-5
      e				q			tp			W			w		      i